METEOSAT-10 (MSG-3)     
1 38552U 12035B   24176.16841807  .00000002  00000+0  00000+0 0  9999
2 38552   2.9802  61.0490 0000694 338.0527 294.4603  1.00267835 43965
METOP-B                 
1 38771U 12049A   24176.49359266  .00000176  00000+0  10042-3 0  9999
2 38771  98.6275 233.5531 0001538  89.9015 270.2339 14.21441861610584
INSAT-3D                
1 39216U 13038B   24176.08938274 -.00000146  00000+0  00000+0 0  9997
2 39216   0.0573 101.7097 0000556 137.6665 147.6190  1.00271716 40055
FENGYUN 3C              
1 39260U 13052A   24176.51460690  .00000113  00000+0  77553-4 0  9997
2 39260  98.4281 175.7324 0010082 310.6308  49.3990 14.16220621556369
METEOR-M 2              
1 40069U 14037A   24176.56480835  .00000135  00000+0  81296-4 0  9991
2 40069  98.4361 170.4728 0005447 350.1314   9.9756 14.20983128516677
HIMAWARI-8              
1 40267U 14060A   24176.46855966 -.00000267  00000+0  00000+0 0  9993
2 40267   0.0591 119.9847 0000864   1.5170 100.9430  1.00269254 35618
FENGYUN 2G              
1 40367U 14090A   24176.11669090 -.00000294  00000+0  00000+0 0  9990
2 40367   3.8076  81.4659 0003097 108.3695 224.6106  1.00266993 34789
METEOSAT-11 (MSG-4)     
1 40732U 15034A   24171.59020498  .00000087  00000+0  00000+0 0  9994
2 40732   1.3918  69.1738 0001876 153.3473 267.8398  1.00279855   552
ELEKTRO-L 2             
1 41105U 15074A   24176.09397799 -.00000109  00000+0  00000+0 0  9990
2 41105   4.8585  79.3941 0000667 130.5556  82.1578  1.00270784 31262
INSAT-3DR               
1 41752U 16054A   24175.75372931 -.00000066  00000+0  00000+0 0  9992
2 41752   0.1190  93.5788 0010019 174.3648 349.7948  1.00271540 28561
HIMAWARI-9              
1 41836U 16064A   24176.01924414 -.00000264  00000+0  00000+0 0  9995
2 41836   0.0087  97.4934 0001103   5.3597 317.4936  1.00272829 28058
GOES 16                 
1 41866U 16071A   24176.15342334 -.00000238  00000+0  00000+0 0  9997
2 41866   0.0737 251.1311 0000549 192.8194 168.8745  1.00272262 27842
FENGYUN 4A              
1 41882U 16077A   24175.88313410 -.00000191  00000+0  00000+0 0  9991
2 41882   0.4745  85.7749 0008384 345.2044 246.4048  1.00268078 27672
CYGFM05                 
1 41884U 16078A   24175.61861690  .00008452  00000+0  30999-3 0  9994
2 41884  34.9550 260.3641 0012304 254.8528 105.0826 15.27151083417062
CYGFM04                 
1 41885U 16078B   24175.53708880  .00007980  00000+0  28494-3 0  9999
2 41885  34.9415 244.8891 0009752 276.8376  83.1229 15.28066288417140
CYGFM02                 
1 41886U 16078C   24175.62581133  .00008007  00000+0  28287-3 0  9991
2 41886  34.9515 246.5685 0012545 265.2148  94.7135 15.28384858417246
CYGFM01                 
1 41887U 16078D   24175.60185388  .00007641  00000+0  28202-3 0  9992
2 41887  34.9482 264.3209 0011901 243.2469 116.7028 15.26967531417112
CYGFM08                 
1 41888U 16078E   24175.55005755  .00007790  00000+0  27950-3 0  9990
2 41888  34.9490 252.7641 0012937 267.3051  92.6183 15.27876265417193
CYGFM07                 
1 41890U 16078G   24176.24455986  .00008764  00000+0  31145-3 0  9998
2 41890  34.9483 239.7944 0009602 281.1337  78.8298 15.28204796417418
CYGFM03                 
1 41891U 16078H   24175.56127692  .00007968  00000+0  28410-3 0  9999
2 41891  34.9495 245.3228 0010569 259.0158 100.9369 15.28104483417293
FENGYUN 3D              
1 43010U 17072A   24176.49664017  .00000118  00000+0  77673-4 0  9995
2 43010  98.9110 131.1941 0001225   6.1921 353.9270 14.19360536342452
NOAA 20 (JPSS-1)        
1 43013U 17073A   24176.53116548  .00000091  00000+0  63864-4 0  9992
2 43013  98.7065 114.3303 0001249 132.5031 227.6251 14.19599307341948
GOES 17                 
1 43226U 18022A   24176.14759282 -.00000081  00000+0  00000+0 0  9996
2 43226   0.0417 206.7275 0001133 282.4021  92.0879  1.00270805 23189
FENGYUN 2H              
1 43491U 18050A   24176.50813454 -.00000119  00000+0  00000+0 0  9995
2 43491   1.1612  87.2475 0001847  38.0679  49.9514  1.00268344 22262
METOP-C                 
1 43689U 18087A   24176.46174798  .00000170  00000+0  97656-4 0  9994
2 43689  98.7231 235.6534 0003075  79.2131 280.9392 14.21478134292155
GEO-KOMPSAT-2A          
1 43823U 18100A   24176.54285611 -.00000335  00000+0  00000+0 0  9992
2 43823   0.0504 130.8787 0002374 320.6942 145.2936  1.00270400 20418
METEOR-M2 2             
1 44387U 19038A   24176.52877997  .00000038  00000+0  36068-4 0  9998
2 44387  98.8269 145.7813 0000756   5.5347 354.5840 14.23895812258435
ARKTIKA-M 1             
1 47719U 21016A   24173.73801457  .00000180  00000+0  00000+0 0  9997
2 47719  63.1392 151.2542 6942940 268.6906  17.9282  2.00609316 24232
FENGYUN 3E              
1 49008U 21062A   24176.53578134  .00000023  00000+0  31579-4 0  9991
2 49008  98.7316 177.7159 0002177  43.9039 316.2310 14.19760163154036
GOES 18                 
1 51850U 22021A   24176.40275865  .00000106  00000+0  00000+0 0  9998
2 51850   0.0129 127.9863 0000589 340.4816 172.5596  1.00270183  8552
NOAA 21 (JPSS-2)        
1 54234U 22150A   24176.49620918  .00000123  00000+0  79205-4 0  9999
2 54234  98.7518 114.3043 0001860 100.3568 259.7817 14.19529308 84016
METEOSAT-12 (MTG-I1)    
1 54743U 22170C   24175.88203784  .00000004  00000+0  00000+0 0  9996
2 54743   0.5221  42.5953 0001889  48.3303 138.7063  1.00274441  5725
TIANMU-1 03             
1 55973U 23039A   24176.54998171  .00007930  00000+0  33912-3 0  9999
2 55973  97.4698 327.1262 0007629 139.6334 220.5470 15.23081729 69979
TIANMU-1 04             
1 55974U 23039B   24176.46765316  .00007613  00000+0  32700-3 0  9996
2 55974  97.4620 326.5976 0007772 140.2632 219.9175 15.22941942 69951
TIANMU-1 05             
1 55975U 23039C   24176.51698111  .00000144  00000+0  91475-5 0  9999
2 55975  97.4663 326.9794 0006363 153.1180 207.0388 15.22982319 69954
TIANMU-1 06             
1 55976U 23039D   24176.43497426  .00001360  00000+0  60771-4 0  9992
2 55976  97.4676 327.0165 0006422 156.2812 203.8722 15.23036818 69945
METEOR-M2 3             
1 57166U 23091A   24176.49371863  .00000030  00000+0  32236-4 0  9993
2 57166  98.7123 231.1018 0005130 105.7902 254.3842 14.23900370 51661
TIANMU-1 07             
1 57399U 23101A   24176.48226621  .00005060  00000+0  25748-3 0  9990
2 57399  97.3622 233.4306 0006090 148.8972 211.2623 15.17241935 51538
TIANMU-1 08             
1 57400U 23101B   24176.51753772  .00005553  00000+0  28208-3 0  9990
2 57400  97.3610 233.3370 0008123 157.5757 202.5834 15.17253583 51534
TIANMU-1 09             
1 57401U 23101C   24176.50052560  .00005774  00000+0  29326-3 0  9994
2 57401  97.3565 233.1586 0008667 154.3494 205.8171 15.17235991 51530
TIANMU-1 10             
1 57402U 23101D   24176.46679527  .00005210  00000+0  26499-3 0  9991
2 57402  97.3645 233.4084 0010836 154.9212 205.2550 15.17214699 51527
FENGYUN 3F              
1 57490U 23111A   24176.48978208  .00000103  00000+0  69577-4 0  9990
2 57490  98.7695 245.5538 0001955  84.3950 275.7449 14.19828821 46307
ARKTIKA-M 2             
1 58584U 23198A   24169.48278552  .00000150  00000+0  00000+0 0  9990
2 58584  63.2417 235.5556 6979408 269.9021  17.2518  2.00611967  3681
TIANMU-1 11             
1 58645U 23205A   24176.51587091  .00004349  00000+0  23480-3 0  9995
2 58645  97.4018 201.4163 0011959  28.4010 331.7872 15.15189035 27622
TIANMU-1 12             
1 58646U 23205B   24176.53122698  .00004873  00000+0  26244-3 0  9999
2 58646  97.4006 201.3614 0010245  22.6524 337.5159 15.15228879 27614
TIANMU-1 13             
1 58647U 23205C   24176.56395277  .00005165  00000+0  27805-3 0  9997
2 58647  97.4034 201.3901 0009675   7.9563 352.1821 15.15222158 27612
TIANMU-1 14             
1 58648U 23205D   24176.54780609  .00005550  00000+0  29842-3 0  9994
2 58648  97.3960 201.2320 0010157   8.1106 352.0289 15.15226043 27611
TIANMU-1 19             
1 58660U 23208A   24176.55506759  .00005267  00000+0  28393-3 0  9999
2 58660  97.4127 288.7609 0008467 348.2718  11.8316 15.15174358 27284
TIANMU-1 20             
1 58661U 23208B   24176.55475918  .00005169  00000+0  27251-3 0  9995
2 58661  97.4054 288.7362 0009520 358.1840   1.9357 15.15969155 27290
TIANMU-1 21             
1 58662U 23208C   24176.54342189  .00006050  00000+0  31037-3 0  9995
2 58662  97.4093 288.9971 0009146 358.3333   1.7868 15.16865711 27306
TIANMU-1 22             
1 58663U 23208D   24176.57163598  .00005557  00000+0  29967-3 0  9994
2 58663  97.4113 288.8514 0005212  18.7272 341.4152 15.15153761 27293
TIANMU-1 15             
1 58700U 24004A   24176.54614018  .00004477  00000+0  24212-3 0  9994
2 58700  97.4621 357.5140 0010586  35.4507 324.7427 15.15129052 25883
TIANMU-1 16             
1 58701U 24004B   24176.52887075  .00005123  00000+0  27623-3 0  9996
2 58701  97.4547 357.3704 0010680  40.6325 319.5702 15.15163825 25880
TIANMU-1 17             
1 58702U 24004C   24176.51389852  .00005284  00000+0  28517-3 0  9997
2 58702  97.4591 357.4891 0008444  37.6497 322.5325 15.15139498 25872
TIANMU-1 18             
1 58703U 24004D   24176.49700039  .00004642  00000+0  25080-3 0  9998
2 58703  97.4607 357.5459 0007435  29.9236 330.2420 15.15169993 25871
INSAT-3DS               
1 58990U 24033A   24171.63670715 -.00000142  00000+0  00000+0 0  9999
2 58990   0.0159 349.8168 0010402 105.1251 125.6022  1.00268037   992
METEOR-M2 4             
1 59051U 24039A   24176.52170466  .00000038  00000+0  36426-4 0  9994
2 59051  98.5978 138.2344 0008237 101.2098 259.0006 14.22233671 16532
PREFIRE-2               
1 59881U 24099A   24175.79986484  .00003475  00000+0  20526-3 0  9995
2 59881  97.4953  33.1105 0013943 194.9431 165.1390 15.12082907  4457
